[{"OBJECT_NAME":"HAWK-2C","OBJECT_ID":"2021-006CT","EPOCH":"2026-03-09T16:13:22.454976","MEAN_MOTION":15.33286436,"ECCENTRICITY":0.0006943,"INCLINATION":97.2417,"RA_OF_ASC_NODE":114.9961,"ARG_OF_PERICENTER":184.0877,"MEAN_ANOMALY":176.031,"EPHEMERIS_TYPE":0,"CLASSIFICATION_TYPE":"U","NORAD_CAT_ID":47502,"ELEMENT_SET_NO":999,"REV_AT_EPOCH":28424,"BSTAR":0.00025492914,"MEAN_MOTION_DOT":8.129e-5,"MEAN_MOTION_DDOT":0},{"OBJECT_NAME":"STARLINK-35503","OBJECT_ID":"2025-245M","EPOCH":"2026-03-09T19:52:06.749760","MEAN_MOTION":15.30211126,"ECCENTRICITY":0.00011442,"INCLINATION":53.1577,"RA_OF_ASC_NODE":283.5394,"ARG_OF_PERICENTER":108.4847,"MEAN_ANOMALY":251.6278,"EPHEMERIS_TYPE":0,"CLASSIFICATION_TYPE":"U","NORAD_CAT_ID":66245,"ELEMENT_SET_NO":999,"REV_AT_EPOCH":2122,"BSTAR":0.00098557575,"MEAN_MOTION_DOT":0.00028955,"MEAN_MOTION_DDOT":0}]
